    CK20F050  2021 03 17.3081  4.325606  0.975087  310.6826  350.4994   52.2052  20231014   6.5  3.2  C/2020 F5 (MASTER)                                       MPEC 2023-TM6
    CK20F060  2020 04 11.6247  3.503357  0.991045  344.5126  207.9044  174.5830  20231014  14.5  2.8  C/2020 F6 (PANSTARRS)                                    MPEC 2020-L06
    CK20F070  2021 11 13.6489  5.332236  0.990548  227.9468  321.8622   93.9534  20231014   7.0  4.0  C/2020 F7 (Lemmon)                                       MPEC 2023-J95
    CK20F080  2020 05 27.1253  0.429631  1.000173   68.0769  259.8596  110.6057  20231014  10.0  4.0  C/2020 F8 (SWAN)                                         MPEC 2023-J29
    PK20G010  2027 01 24.1044  0.503187  0.860537  207.6164  240.1058   18.5089  20231014  17.0  4.0  P/2020 G1 (Pimentel)                                     MPEC 2020-L06
    CK20H020  2020 04 27.8139  0.830517  0.995580   26.6499  277.6683  124.8752  20231014  14.0  3.2  C/2020 H2 (Pruyne)                                       MPEC 2022-YB4
    CK20H030  2020 06  5.7161  2.300288  1.000000   30.4456  270.6227   62.5292            13.5  4.0  C/2020 H3 (Wierzchos)                                    MPEC 2020-HM1
    CK20H040  2020 08 29.6325  0.924470  0.980670  117.5110  307.6365   84.5003  20231014  15.0  3.2  C/2020 H4 (Leonard)                                      MPEC 2020-L06
    CK20H050  2020 12 10.4722  9.340782  0.997729  326.3183  210.6278   70.2569  20231014   5.0  4.0  C/2020 H5 (Robinson)                                     MPEC 2023-N01
    CK20H060  2021 09 30.4865  4.701169  0.999072   20.2820  213.7214   79.9778  20231014   8.0  3.2  C/2020 H6 (ATLAS)                                        MPEC 2023-SQ0
    CK20H070  2020 06  2.9509  4.419545  0.996854   82.6780  323.5194  135.9235            11.0  4.0  C/2020 H7 (Lemmon)                                       MPEC 2020-KB7
    CK20H080  2020 06  4.5367  4.673593  0.992206  128.9251   68.4350   99.6981  20231014  10.5  4.0  C/2020 H8 (PANSTARRS)                                    MPEC 2021-N06
    AK20H090  2019 12 21.7830  2.571521  0.993022  312.8056  213.1854  137.8797  20231014  18.0  2.0  A/2020 H9                                                MPEC 2022-ED3
    CK20H110  2020 09 14.8105  7.625989  1.002012   91.4536  303.0409  151.3960  20231014   8.5  4.0  C/2020 H11 (PANSTARRS-Lemmon)                            MPEC 2023-HN7
    CK20J010  2021 04 18.6080  3.351839  1.000676  341.7224  226.6104  142.3059  20231014   8.5  3.2  C/2020 J1 (SONEAR)                                       MPEC 2023-KD6
    CK20K010  2023 05  9.0881  3.073361  0.999889  213.9860   94.3587   89.6730  20231014   5.5  4.0  C/2020 K1 (PANSTARRS)                                    MPEC 2023-R20
    CK20K020  2020 08  6.2115  8.880637  1.003128   67.3511  288.4014   91.0141  20231014  10.8  4.0  C/2020 K2 (PANSTARRS)                                    MPEC 2021-N06
    CK20K030  2020 06  1.0031  1.583069  1.000000   64.4924   28.3546  129.0152            14.5  4.0  C/2020 K3 (Leonard)                                      MPEC 2020-KF9
    CK20K040  2020 03  4.1250  1.752687  0.926887  308.8681  264.2242  125.5847  20231014  16.5  4.0  C/2020 K4 (PANSTARRS)                                    MPEC 2020-L06
    CK20K050  2021 06  5.3506  1.537365  1.001295  249.6201   86.1563   67.0992  20231014  11.0  4.0  C/2020 K5 (PANSTARRS)                                    MPEC 2021-R75
    CK20K060  2021 09 15.8120  5.868776  1.003635   44.3376  291.5653  103.6475  20231014   8.0  4.0  C/2020 K6 (Rankin)                                       MPEC 2023-N01
    CK20K070  2019 10 27.6890  6.394456  0.934605  358.2379  286.0923   32.0432  20231014   8.0  4.0  C/2020 K7 (PANSTARRS)                                    MPEC 2023-A50
    CK20K080  2020 09 14.9987  0.471481  1.000206  259.9513  181.5280   31.4533  20231014  15.0  3.2  C/2020 K8 (Catalina-ATLAS)                               MPEC 2021-P47
    PK20K090  2021 02 12.4336  2.854011  0.321105  197.0371  166.3100   23.2070  20231014  12.5  4.0  P/2020 K9 (Lemmon-PANSTARRS)                             MPEC 2021-BE3
    PK20M010  2019 12 24.8631  2.800675  0.473231   72.6457  142.6091    8.5344  20231014  14.5  4.0  P/2020 M1 (PANSTARRS)                                    MPEC 2023-C45
    CK20M030  2020 10 25.9769  1.268972  0.953273  328.5449   71.1906   23.4683  20231014  14.5  4.0  C/2020 M3 (ATLAS)                                        MPEC 2022-H30
    AK20M040  2020 11 24.0824  5.949216  1.001080  104.6151  348.6235  160.1227  20231014  14.5  2.0  A/2020 M4                                                MPEC 2023-N01
    PK20M04K  2027 06 20.8454  6.133891  0.012559   97.5064    0.7108    6.7925  20231014   8.0  4.0  P/2020 MK4 (PANSTARRS)                                   MPC xxxxx
    CK20M050  2021 08 19.8619  3.001810  1.000361  126.2859  352.0841   93.2133  20231014   9.0  4.0  C/2020 M5 (ATLAS)                                        MPEC 2023-FK0
    CK20N010  2021 03 12.4910  1.317608  1.000525  186.7656  279.9080   29.7275  20231014  12.5  4.0  C/2020 N1 (PANSTARRS)                                    MPEC 2022-GA9
    CK20N020  2020 08 23.5938  1.793240  0.982353  331.2642  257.1504   61.0380  20231014  16.0  3.2  C/2020 N2 (ATLAS)                                        MPEC 2021-P47
    CK20O020  2021 08 28.3550  4.862075  1.001233   10.2883  256.7816   71.7619  20231014   8.0  3.2  C/2020 O2 (Amaral)                                       MPEC 2023-R20
    PK20O030  2021 01 29.6340  4.169131  0.102911   81.5995  266.8184    8.4444  20231014  12.0  4.0  P/2020 O3 (PANSTARRS)                                    MPEC 2023-C45
    CK20P010  2020 10 20.6077  0.340613  1.000342    8.8923   53.4773   45.1618  20231014  14.0  3.2  C/2020 P1 (NEOWISE)                                      MPEC 2021-BE3
    CK20P030  2021 04 21.6624  6.812784  1.002069   82.2879   19.4663   61.8886  20231014   6.0  4.0  C/2020 P3 (ATLAS)                                        MPEC 2023-O39
    CK20P06V  2021 09 26.1288  2.294257  0.945459   71.3703  329.1484  128.2156  20231014  10.0  4.0  C/2020 PV6 (PANSTARRS)                                   MPEC 2022-PB4
    CK20Q010  2020 08 14.8577  1.315981  0.978580    9.9559   52.3992   42.9426  20231014  14.0  4.0  C/2020 Q1 (Borisov)                                      MPEC 2022-L66
    CK20Q020  2020 01 28.8174  5.412271  0.491034  118.2821  179.8247    3.3358  20231014  12.0  3.2  C/2020 Q2 (PANSTARRS)                                    MPEC 2023-CD7
    CK20R020  2022 02 25.0626  4.693773  0.988757  211.8169  195.0940   53.2281  20231014   9.0  4.0  C/2020 R2 (PANSTARRS)                                    MPEC 2022-X67
    CK20R040  2021 03  2.2830  1.025716  0.989713   46.6583  323.2681  164.4438  20231014  13.5  4.0  C/2020 R4 (ATLAS)                                        MPEC 2022-K19
    PK20R050  2020 05 29.4741  3.421048  0.314275   82.6792  272.9605   11.4427  20231014   9.5  6.0  P/2020 R5 (PANSTARRS)                                    MPEC 2023-C45
    CK20R060  2019 09  8.1013  3.135558  0.989794  271.9959   12.1809   82.8168  20231014  11.0  4.0  C/2020 R6 (Rankin)                                       MPEC 2021-Y10
    CK20R070  2022 09 16.2483  2.955842  1.000262  347.8404  268.2904  114.9001  20231014   7.0  3.2  C/2020 R7 (ATLAS)                                        MPEC 2023-TM6
    PK20S010  2021 01 17.6417  2.951607  0.507691  255.0109  129.5208   13.7256  20231014  14.0  4.0  P/2020 S1 (PANSTARRS)                                    MPEC 2021-BE3
    CK20S020  2020 12 22.2925  1.757681  0.828193  202.3371  197.6924   22.4046  20231014  17.0  4.0  C/2020 S2 (PANSTARRS)                                    MPEC 2022-ST7
    CK20S030  2020 12 11.7996  0.395988  0.997336  350.0798  222.5991   20.0168  20231014  13.5  3.2  C/2020 S3 (Erasmus)                                      MPEC 2022-C56
    CK20S040  2023 02  9.2448  3.369692  1.001577   20.9954  117.7149   20.5678  20231014   8.5  3.2  C/2020 S4 (PANSTARRS)                                    MPEC 2023-O39
    PK20S050  2020 08  9.1635  2.683308  0.338314   53.1994  316.0613   12.3474  20231014  14.5  4.0  P/2020 S5 (PANSTARRS)                                    MPEC 2021-BE3
    PK20S070  2020 11 18.7947  2.966428  0.410527   40.5688  328.0930   16.0858  20231014  14.5  4.0  P/2020 S7 (PANSTARRS)                                    MPEC 2021-BE3
    CK20S080  2021 04 10.7708  2.360068  0.990824  160.2443   24.0688  108.5274  20231014  12.5  4.0  C/2020 S8 (Lemmon)                                       MPEC 2021-P47
    CK20T020  2021 07 10.8475  2.058838  0.993154  150.4542   83.0619   27.8375  20231014  11.0  3.2  C/2020 T2 (Palomar)                                      MPEC 2022-TD3
    PK20T030  2021 01 21.0497  1.433845  0.592280  357.0372   73.9943    7.2980  20231014  18.0  3.2  P/2020 T3 (PANSTARRS)                                    MPEC 2021-N06
    CK20T040  2021 07  5.3952  2.191137  1.000268   79.5963   50.6194   83.8513  20231014  13.0  3.2  C/2020 T4 (PANSTARRS)                                    MPEC 2021-N06
    CK20T050  2020 10  9.1041  1.892543  0.997352   90.3500  237.8327   66.5490  20231014  16.0  4.0  C/2020 T5 (Lemmon)                                       MPEC 2021-BE3
    PK20U020  2020 12 26.3173  1.846329  0.511286   84.6469  342.8902    6.4206  20231014  18.0  4.0  P/2020 U2 (PANSTARRS)                                    MPEC 2021-N06
    CK20U030  2021 02  6.2832  2.278019  0.965949  124.3393  282.6665   30.1503  20231014  15.0  4.0  C/2020 U3 (Rankin)                                       MPEC 2021-W31
    CK20U040  2022 04  9.3267  5.358756  1.000348   70.0504  120.3498  167.0187  20231014   7.0  4.0  C/2020 U4 (PANSTARRS)                                    MPEC 2023-TM6
